NORAD_CAT_ID,OBJECT_NAME,OBJECT_TYPE,EPOCH,MEAN_MOTION,ECCENTRICITY,INCLINATION,RA_OF_ASC_NODE,ARG_OF_PERICENTER,MEAN_ANOMALY,BSTAR,MEAN_MOTION_DOT,MEAN_MOTION_DDOT,TLE_LINE0,TLE_LINE1,TLE_LINE2,SEMIMAJOR_AXIS,PERIOD,APOGEE,PERIGEE,DECAYED
53393.0,STARLINK-4530,PAYLOAD,2022-09-26 22:00:00,15.08851008,0.000183,53.2174,19.461,42.3891,109.3229,0.00014138,1.963e-05,0.0,0 STARLINK-4530,1 53393U 22097F   22269.91667824  .00001963  00000-0  14138-3 0  9996,2 53393  53.2174  19.4610 0001830  42.3891 109.3229 15.08851008  1303,6917.847,95.437,540.9780000000002,538.446,0.0
53393.0,STARLINK-4530,PAYLOAD,2022-09-27 06:00:00,15.08815209,0.000173,53.2181,17.9674,50.5574,112.7439,0.0025561,0.00040599,0.0,0 STARLINK-4530,1 53393U 22097F   22270.25001157  .00040599  00000-0  25561-2 0  9995,2 53393  53.2181  17.9674 0001730  50.5574 112.7439 15.08815209  7885,6917.956,95.439,541.018,538.624,0.0
53393.0,STARLINK-4530,PAYLOAD,2022-09-27 14:00:01,15.08839165,0.0001927,53.2181,16.4728,45.7501,129.1749,3.7034e-05,3.01e-06,0.0,0 STARLINK-4530,1 53393U 22097F   22270.58334491  .00000301  00000-0  37034-4 0  9998,2 53393  53.2181  16.4728 0001927  45.7501 129.1749 15.08839165  1307,6917.8830000000025,95.438,541.081,538.415,0.0
53393.0,STARLINK-4530,PAYLOAD,2022-09-27 22:00:01,15.08877136,0.0001927,53.2179,14.9759,44.2186,142.3781,-0.00050621,-8.344e-05,0.0,0 STARLINK-4530,1 53393U 22097F   22270.91668981 -.00008344  00000-0 -50621-3 0  9992,2 53393  53.2179  14.9759 0001927  44.2186 142.3781 15.08877136  1307,6917.767,95.435,540.965,538.299,0.0
53393.0,STARLINK-4530,PAYLOAD,2022-09-28 14:00:01,15.08870223,0.0002026,53.218,11.9838,45.5995,164.2046,-0.0036731,-0.00058322,0.0,0 STARLINK-4530,1 53393U 22097F   22271.58334491 -.00058322  00000-0 -36731-2 0  9998,2 53393  53.2180  11.9838 0002026  45.5995 164.2046 15.08870223  1304,6917.788000000001,95.436,541.055,538.251,0.0
53393.0,STARLINK-4530,PAYLOAD,2022-09-28 22:00:00,15.08843337,0.0001847,53.218,10.4868,41.093,180.3087,-0.0056521,-0.00089139,0.0,0 STARLINK-4530,1 53393U 22097F   22271.91667824 -.00089139  00000-0 -56521-2 0  9993,2 53393  53.2180  10.4868 0001847  41.0930 180.3087 15.08843337  1301,6917.87,95.437,541.013,538.457,0.0
53393.0,STARLINK-4530,PAYLOAD,2022-09-29 14:00:01,15.08790921,0.0001938,53.2182,7.4951,39.4386,205.0626,0.0009186,0.00014342,0.0,0 STARLINK-4530,1 53393U 22097F   22272.58334491  .00014342  00000-0  91860-3 0  9996,2 53393  53.2182   7.4951 0001938  39.4386 205.0626 15.08790921  8232,6918.03,95.441,541.236,538.555,0.0
53393.0,STARLINK-4530,PAYLOAD,2022-09-29 22:00:00,15.08827681,0.0001875999999999,53.2183,5.9979999999999976,38.7007,217.3418,-0.0013464,-0.00021645,0.0,0 STARLINK-4530,1 53393U 22097F   22272.91667824 -.00021645  00000-0 -13464-2 0  9991,2 53393  53.2183   5.9980 0001876  38.7007 217.3418 15.08827681  1301,6917.918000000002,95.438,541.081,538.485,0.0
53393.0,STARLINK-4530,PAYLOAD,2022-09-30 14:00:01,15.08831125,0.0002031,53.2185,3.0062,39.4334,239.7666,0.0016567,0.00026171,0.0,0 STARLINK-4530,1 53393U 22097F   22273.58334491  .00026171  00000-0  16567-2 0  9990,2 53393  53.2185   3.0062 0002031  39.4334 239.7666 15.08831125  1309,6917.908,95.438,541.178,538.367,0.0
53393.0,STARLINK-4530,PAYLOAD,2022-09-30 16:00:00,15.08821381,0.0002039,53.2186,2.6324,38.5781,333.5232,0.0036298,0.00057926,0.0,0 STARLINK-4530,1 53393U 22097F   22273.66667824  .00057926  00000-0  36298-2 0  9993,2 53393  53.2186   2.6324 0002039  38.5781 333.5232 15.08821381  8403,6917.937,95.439,541.2130000000002,538.3919999999998,0.0
53393.0,STARLINK-4530,PAYLOAD,2022-09-30 22:00:00,15.08878172,0.0001915,53.2185,1.5089,38.8458,251.9494,-0.0015449,-0.00024817,0.0,0 STARLINK-4530,1 53393U 22097F   22273.91667824 -.00024817  00000-0 -15449-2 0  9991,2 53393  53.2185   1.5089 0001915  38.8458 251.9494 15.08878172  1309,6917.764,95.435,540.953,538.304,0.0
53393.0,STARLINK-4530,PAYLOAD,2022-10-01 06:00:00,15.08860491,0.000177,53.2188,0.0116,42.4261,259.9968,0.00025928,3.843e-05,0.0,0 STARLINK-4530,1 53393U 22097F   22274.25001157  .00003843  00000-0  25928-3 0  9998,2 53393  53.2188   0.0116 0001770  42.4261 259.9968 15.08860491  8495,6917.818,95.436,540.9069999999998,538.4580000000002,0.0
53393.0,STARLINK-4530,PAYLOAD,2022-10-01 14:00:01,15.08861967,0.0001976,53.2187,358.517,36.1689,277.8751,-0.00088268,-0.00014317,0.0,0 STARLINK-4530,1 53393U 22097F   22274.58334491 -.00014317  00000-0 -88268-3 0  9990,2 53393  53.2187 358.5170 0001976  36.1689 277.8751 15.08861967  1308,6917.813,95.436,541.045,538.311,0.0
53393.0,STARLINK-4530,PAYLOAD,2022-10-01 22:00:00,15.08869717,0.0001867,53.2185,357.0195,36.4324,289.2269,-0.0053348,-0.00084269,0.0,0 STARLINK-4530,1 53393U 22097F   22274.91667824 -.00084269  00000-0 -53348-2 0  9999,2 53393  53.2185 357.0195 0001867  36.4324 289.2269 15.08869717  1307,6917.79,95.436,540.946,538.363,0.0
53393.0,STARLINK-4530,PAYLOAD,2022-10-02 06:00:00,15.08821439,0.0001798,53.2188,355.5226,42.9492,294.302,0.0016832,0.00026588,0.0,0 STARLINK-4530,1 53393U 22097F   22275.25001157  .00026588  00000-0  16832-2 0  9993,2 53393  53.2188 355.5226 0001798  42.9492 294.3020 15.08821439  8644,6917.937,95.439,541.0459999999998,538.558,0.0
53393.0,STARLINK-4530,PAYLOAD,2022-10-02 14:00:01,15.08824914,0.0002024,53.2186,354.028,38.2771,310.5621,0.0022225,0.00035246,0.0,0 STARLINK-4530,1 53393U 22097F   22275.58334491  .00035246  00000-0  22225-2 0  9993,2 53393  53.2186 354.0280 0002024  38.2771 310.5621 15.08824914  1302,6917.927,95.439,541.192,538.391,0.0
53393.0,STARLINK-4530,PAYLOAD,2022-10-02 22:00:00,15.0887388,0.0001875,53.2183,352.5303,37.9433,322.4875,-0.003457,-0.00054939,0.0,0 STARLINK-4530,1 53393U 22097F   22275.91667824 -.00054939  00000-0 -34570-2 0  9997,2 53393  53.2183 352.5303 0001875  37.9433 322.4875 15.08873880  1312,6917.776999999999,95.435,540.939,538.345,0.0
53393.0,STARLINK-4530,PAYLOAD,2022-10-03 06:00:00,15.08847558,0.0001761999999999,53.2185,351.0336,41.0619,330.9785,0.0015654999999999,0.0002472,0.0,0 STARLINK-4530,1 53393U 22097F   22276.25001157  .00024720  00000-0  15655-2 0  9992,2 53393  53.2185 351.0336 0001762  41.0619 330.9785 15.08847558  8797,6917.857,95.437,540.941,538.503,0.0
53393.0,STARLINK-4530,PAYLOAD,2022-10-03 14:00:01,15.0886588,0.0002011,53.2183,349.539,37.4455,346.2149,-0.00039486,-6.572e-05,0.0,0 STARLINK-4530,1 53393U 22097F   22276.58334491 -.00006572  00000-0 -39486-3 0  9994,2 53393  53.2183 349.5390 0002011  37.4455 346.2149 15.08865880  1304,6917.801,95.436,541.057,538.275,0.0
53393.0,STARLINK-4530,PAYLOAD,2022-10-03 22:00:00,15.0886278,0.0001906999999999,53.218,348.0412,39.2866,355.9999,-0.002334,-0.00037266,0.0,0 STARLINK-4530,1 53393U 22097F   22276.91667824 -.00037266  00000-0 -23340-2 0  9995,2 53393  53.2180 348.0412 0001907  39.2866 355.9999 15.08862780  8896,6917.811,95.436,540.995,538.357,0.0
53393.0,STARLINK-4530,PAYLOAD,2022-10-04 14:00:01,15.08830699,0.0002,53.218,345.0499,36.1389,22.3668,-7.8108e-05,-1.531e-05,0.0,0 STARLINK-4530,1 53393U 22097F   22277.58334491 -.00001531  00000-0 -78108-4 0  9990,2 53393  53.2180 345.0499 0002000  36.1389  22.3668 15.08830699  1300,6917.909000000002,95.438,541.1569999999998,538.39,0.0
53393.0,STARLINK-4530,PAYLOAD,2022-10-04 16:00:00,15.0882517,0.0002014,53.2177,344.6758,34.4789,116.9256,0.0003607,5.455e-05,0.0,0 STARLINK-4530,1 53393U 22097F   22277.66667824  .00005455  00000-0  36070-3 0  9996,2 53393  53.2177 344.6758 0002014  34.4789 116.9256 15.08825170  9005,6917.926,95.438,541.184,538.3969999999998,0.0
53393.0,STARLINK-4530,PAYLOAD,2022-10-04 22:00:00,15.08816354,0.0001899,53.2178,343.5519,36.9878,33.0994,-0.00076967,-0.00012509,0.0,0 STARLINK-4530,1 53393U 22097F   22277.91667824 -.00012509  00000-0 -76967-3 0  9993,2 53393  53.2178 343.5519 0001899  36.9878  33.0994 15.08816354  1302,6917.953,95.439,541.131,538.504,0.0
53393.0,STARLINK-4530,PAYLOAD,2022-10-05 08:00:01,15.08881508,0.0001858,53.2177,341.6758,39.1545,135.3812,-0.012601,-0.00195663,0.0,0 STARLINK-4530,1 53393U 22097F   22278.33334491 -.00195663  00000-0 -12601-1 0  9997,2 53393  53.2177 341.6758 0001858  39.1545 135.3812 15.08881508  9100,6917.754,95.435,540.904,538.3330000000002,0.0
53393.0,STARLINK-4530,PAYLOAD,2022-10-05 14:00:01,15.08800467,0.0002018,53.2178,340.5611,33.7952,59.506,0.0022136,0.00035079,0.0,0 STARLINK-4530,1 53393U 22097F   22278.58335648  .00035079  00000-0  22136-2 0  9996,2 53393  53.2178 340.5611 0002018  33.7952  59.5060 15.08800467  9149,6918.001,95.44,541.262,538.47,0.0
53393.0,STARLINK-4530,PAYLOAD,2022-10-05 22:00:00,15.08808826,0.0001914,53.2178,339.0632,37.2167,67.5878,0.00016472,2.332e-05,0.0,0 STARLINK-4530,1 53393U 22097F   22278.91667824  .00002332  00000-0  16472-3 0  9990,2 53393  53.2178 339.0632 0001914  37.2167  67.5878 15.08808826  1309,6917.976,95.44,541.165,538.5169999999998,0.0
53393.0,STARLINK-4530,PAYLOAD,2022-10-06 06:00:00,15.08830864,0.0001986999999999,53.2178,337.56699999999995,40.5608,75.7966,0.00052689,8.105e-05,0.0,0 STARLINK-4530,1 53393U 22097F   22279.25001157  .00008105  00000-0  52689-3 0  9993,2 53393  53.2178 337.5670 0001987  40.5608  75.7966 15.08830864  9248,6917.908,95.438,541.148,538.399,0.0
53393.0,STARLINK-4530,PAYLOAD,2022-10-06 14:00:01,15.08970164,0.0002554,53.2178,336.0722,31.0531,96.9365,-0.0067598999999999,-0.0010667,0.0,0 STARLINK-4530,1 53393U 22097F   22279.58334491 -.00106670  00000-0 -67599-2 0  9992,2 53393  53.2178 336.0722 0002554  31.0531  96.9365 15.08970164  1306,6917.483,95.429,541.114,537.581,0.0
53393.0,STARLINK-4530,PAYLOAD,2022-10-06 22:42:55,15.08866641,0.0002301,53.2177,334.4362,38.4146,263.2111,-0.0071135,-0.00111834,0.0,0 STARLINK-4530,1 53393U 22097F   22279.94646991 -.00111834  00000-0 -71135-2 0  9992,2 53393  53.2177 334.4362 0002301  38.4146 263.2111 15.08866641  1302,6917.799,95.436,541.256,538.072,0.0
